{"type": "FeatureCollection", "features": [ {"type": "Feature", "properties": {"norad_id": 37420, "name": "FENGYUN 1C DEB", "group": "fengyun-1c-debris", "lat": -79.87324648658159, "lon": 95.46045140925506, "alt_km": 851.6714287961086, "timestamp": "2025-12-12T07:43:20.803253+00:00", "meta": {"OBJECT_NAME": "FENGYUN 1C DEB", "OBJECT_ID": "1999-025EGN", "EPOCH": "2025-12-08T04:40:09.470784", "MEAN_MOTION": 13.9973792, "ECCENTRICITY": 0.00707955, "INCLINATION": 98.8619, "RA_OF_ASC_NODE": 332.3305, "ARG_OF_PERICENTER": 288.8881, "MEAN_ANOMALY": 70.4618, "EPHEMERIS_TYPE": 0, "CLASSIFICATION_TYPE": "U", "NORAD_CAT_ID": 37420, "ELEMENT_SET_NO": 999, "REV_AT_EPOCH": 59701, "BSTAR": 0.00086941135, "MEAN_MOTION_DOT": 1.257e-05, "MEAN_MOTION_DDOT": 0}, "tle": {"line1": "1 37420U 99025EGN 25342.19455406  .00001257  00000+0  86941-3 0  9996", "line2": "2 37420  98.8619 332.3305 0070795 288.8881  70.4618 13.99737920597017"}}, "geometry": {"type": "Point", "coordinates": [95.46045140925506, -79.87324648658159]}}, {"type": "Feature", "properties": {"norad_id": 37421, "name": "FENGYUN 1C DEB", "group": "fengyun-1c-debris", "lat": -30.82792104131628, "lon": -53.52878363617101, "alt_km": 1245.4089276520936, "timestamp": "2025-12-12T07:43:20.803264+00:00", "meta": {"OBJECT_NAME": "FENGYUN 1C DEB", "OBJECT_ID": "1999-025EGP", "EPOCH": "2025-12-08T14:18:59.473152", "MEAN_MOTION": 13.40522268, "ECCENTRICITY": 0.0408878, "INCLINATION": 98.8881, "RA_OF_ASC_NODE": 297.8318, "ARG_OF_PERICENTER": 95.9007, "MEAN_ANOMALY": 268.8872, "EPHEMERIS_TYPE": 0, "CLASSIFICATION_TYPE": "U", "NORAD_CAT_ID": 37421, "ELEMENT_SET_NO": 999, "REV_AT_EPOCH": 60890, "BSTAR": 0.0009747, "MEAN_MOTION_DOT": 8.4e-06, "MEAN_MOTION_DDOT": 0}, "tle": {"line1": "1 37421U 99025EGP 25342.59652168  .00000840  00000+0  97470-3 0  9991", "line2": "2 37421  98.8881 297.8318 0408878  95.9007 268.8872 13.40522268608901"}}, "geometry": {"type": "Point", "coordinates": [-53.52878363617101, -30.82792104131628]}}, {"type": "Feature", "properties": {"norad_id": 37423, "name": "FENGYUN 1C DEB", "group": "fengyun-1c-debris", "lat": -76.3440406427016, "lon": 76.1108190477722, "alt_km": 892.8142611691965, "timestamp": "2025-12-12T07:43:20.803275+00:00", "meta": {"OBJECT_NAME": "FENGYUN 1C DEB", "OBJECT_ID": "1999-025EGR", "EPOCH": "2025-12-09T10:09:17.471232", "MEAN_MOTION": 14.07540897, "ECCENTRICITY": 0.00494259, "INCLINATION": 98.7863, "RA_OF_ASC_NODE": 33.7554, "ARG_OF_PERICENTER": 168.7001, "MEAN_ANOMALY": 191.529, "EPHEMERIS_TYPE": 0, "CLASSIFICATION_TYPE": "U", "NORAD_CAT_ID": 37423, "ELEMENT_SET_NO": 999, "REV_AT_EPOCH": 63563, "BSTAR": 0.0013631012, "MEAN_MOTION_DOT": 2.282e-05, "MEAN_MOTION_DDOT": 0}, "tle": {"line1": "1 37423U 99025EGR 25343.42311888  .00002282  00000+0  13631-2 0  9995", "line2": "2 37423  98.7863  33.7554 0049425 168.7001 191.5290 14.07540897635631"}}, "geometry": {"type": "Point", "coordinates": [76.1108190477722, -76.3440406427016]}}, {"type": "Feature", "properties": {"norad_id": 37424, "name": "FENGYUN 1C DEB", "group": "fengyun-1c-debris", "lat": 43.35290165312657, "lon": -58.230621484322846, "alt_km": 959.3702039837353, "timestamp": "2025-12-12T07:43:20.803285+00:00", "meta": {"OBJECT_NAME": "FENGYUN 1C DEB", "OBJECT_ID": "1999-025EGS", "EPOCH": "2025-12-10T14:24:58.325184", "MEAN_MOTION": 14.17832081, "ECCENTRICITY": 0.0215746, "INCLINATION": 97.2028, "RA_OF_ASC_NODE": 113.5139, "ARG_OF_PERICENTER": 288.8478, "MEAN_ANOMALY": 68.9416, "EPHEMERIS_TYPE": 0, "CLASSIFICATION_TYPE": "U", "NORAD_CAT_ID": 37424, "ELEMENT_SET_NO": 999, "REV_AT_EPOCH": 68543, "BSTAR": 0.0014046, "MEAN_MOTION_DOT": 3.573e-05, "MEAN_MOTION_DDOT": 0}, "tle": {"line1": "1 37424U 99025EGS 25344.60067506  .00003573  00000+0  14046-2 0  9997", "line2": "2 37424  97.2028 113.5139 0215746 288.8478  68.9416 14.17832081685438"}}, "geometry": {"type": "Point", "coordinates": [-58.230621484322846, 43.35290165312657]}}, {"type": "Feature", "properties": {"norad_id": 37427, "name": "FENGYUN 1C DEB", "group": "fengyun-1c-debris", "lat": 59.23333649203855, "lon": 113.37573956516579, "alt_km": 632.4842411952768, "timestamp": "2025-12-12T07:43:20.803295+00:00", "meta": {"OBJECT_NAME": "FENGYUN 1C DEB", "OBJECT_ID": "1999-025EGV", "EPOCH": "2025-11-25T03:26:10.747680", "MEAN_MOTION": 14.97768919, "ECCENTRICITY": 0.01887185, "INCLINATION": 98.6232, "RA_OF_ASC_NODE": 109.1733, "ARG_OF_PERICENTER": 355.7363, "MEAN_ANOMALY": 4.2239, "EPHEMERIS_TYPE": 0, "CLASSIFICATION_TYPE": "U", "NORAD_CAT_ID": 37427, "ELEMENT_SET_NO": 999, "REV_AT_EPOCH": 60059, "BSTAR": 0.00046451943, "MEAN_MOTION_DOT": 7.8e-05, "MEAN_MOTION_DDOT": 0}, "tle": {"line1": "1 37427U 99025EGV 25329.14317995  .00007800  00000+0  46452-3 0  9996", "line2": "2 37427  98.6232 109.1733 0188718 355.7363   4.2239 14.97768919600595"}}, "geometry": {"type": "Point", "coordinates": [113.37573956516579, 59.23333649203855]}}, {"type": "Feature", "properties": {"norad_id": 37428, "name": "FENGYUN 1C DEB", "group": "fengyun-1c-debris", "lat": -10.209002424110698, "lon": -149.57832118115107, "alt_km": 794.3039290471206, "timestamp": "2025-12-12T07:43:20.803305+00:00", "meta": {"OBJECT_NAME": "FENGYUN 1C DEB", "OBJECT_ID": "1999-025EGW", "EPOCH": "2025-12-08T08:21:22.529088", "MEAN_MOTION": 14.34566274, "ECCENTRICITY": 0.00566929, "INCLINATION": 97.7218, "RA_OF_ASC_NODE": 205.4682, "ARG_OF_PERICENTER": 112.0181, "MEAN_ANOMALY": 248.7043, "EPHEMERIS_TYPE": 0, "CLASSIFICATION_TYPE": "U", "NORAD_CAT_ID": 37428, "ELEMENT_SET_NO": 999, "REV_AT_EPOCH": 63373, "BSTAR": 0.0023264608, "MEAN_MOTION_DOT": 6.657e-05, "MEAN_MOTION_DDOT": 0}, "tle": {"line1": "1 37428U 99025EGW 25342.34817742  .00006657  00000+0  23265-2 0  9994", "line2": "2 37428  97.7218 205.4682 0056692 112.0181 248.7043 14.34566274633731"}}, "geometry": {"type": "Point", "coordinates": [-149.57832118115107, -10.209002424110698]}}, {"type": "Feature", "properties": {"norad_id": 37430, "name": "FENGYUN 1C DEB", "group": "fengyun-1c-debris", "lat": 70.13533786696851, "lon": 35.14096019231639, "alt_km": 774.8007143631849, "timestamp": "2025-12-12T07:43:20.803315+00:00", "meta": {"OBJECT_NAME": "FENGYUN 1C DEB", "OBJECT_ID": "1999-025EGY", "EPOCH": "2025-12-05T03:58:16.719456", "MEAN_MOTION": 14.28846273, "ECCENTRICITY": 0.001883, "INCLINATION": 98.7668, "RA_OF_ASC_NODE": 53.2332, "ARG_OF_PERICENTER": 93.5332, "MEAN_ANOMALY": 266.8003, "EPHEMERIS_TYPE": 0, "CLASSIFICATION_TYPE": "U", "NORAD_CAT_ID": 37430, "ELEMENT_SET_NO": 999, "REV_AT_EPOCH": 61593, "BSTAR": 0.0038447795, "MEAN_MOTION_DOT": 9.683e-05, "MEAN_MOTION_DDOT": 0}, "tle": {"line1": "1 37430U 99025EGY 25339.16547129  .00009683  00000+0  38448-2 0  9993", "line2": "2 37430  98.7668  53.2332 0018830  93.5332 266.8003 14.28846273615930"}}, "geometry": {"type": "Point", "coordinates": [35.14096019231639, 70.13533786696851]}}, {"type": "Feature", "properties": {"norad_id": 37432, "name": "FENGYUN 1C DEB", "group": "fengyun-1c-debris", "lat": 68.77643639502972, "lon": -158.64461800256834, "alt_km": 836.9615175531108, "timestamp": "2025-12-12T07:43:20.803326+00:00", "meta": {"OBJECT_NAME": "FENGYUN 1C DEB", "OBJECT_ID": "1999-025EHA", "EPOCH": "2025-12-09T18:04:39.857376", "MEAN_MOTION": 14.53394088, "ECCENTRICITY": 0.01821829, "INCLINATION": 98.1846, "RA_OF_ASC_NODE": 357.0924, "ARG_OF_PERICENTER": 297.219, "MEAN_ANOMALY": 61.0544, "EPHEMERIS_TYPE": 0, "CLASSIFICATION_TYPE": "U", "NORAD_CAT_ID": 37432, "ELEMENT_SET_NO": 999, "REV_AT_EPOCH": 8333, "BSTAR": 0.001422411, "MEAN_MOTION_DOT": 7.326e-05, "MEAN_MOTION_DDOT": 0}, "tle": {"line1": "1 37432U 99025EHA 25343.75323909  .00007326  00000+0  14224-2 0  9991", "line2": "2 37432  98.1846 357.0924 0182182 297.2190  61.0544 14.53394088 83331"}}, "geometry": {"type": "Point", "coordinates": [-158.64461800256834, 68.77643639502972]}}, {"type": "Feature", "properties": {"norad_id": 37435, "name": "FENGYUN 1C DEB", "group": "fengyun-1c-debris", "lat": 69.30299373949367, "lon": -1.1155846897758686, "alt_km": 794.0765746757825, "timestamp": "2025-12-12T07:43:20.803337+00:00", "meta": {"OBJECT_NAME": "FENGYUN 1C DEB", "OBJECT_ID": "1999-025EHD", "EPOCH": "2025-12-09T08:28:59.535840", "MEAN_MOTION": 14.22339891, "ECCENTRICITY": 0.00404486, "INCLINATION": 98.648, "RA_OF_ASC_NODE": 19.7275, "ARG_OF_PERICENTER": 24.2253, "MEAN_ANOMALY": 336.0816, "EPHEMERIS_TYPE": 0, "CLASSIFICATION_TYPE": "U", "NORAD_CAT_ID": 37435, "ELEMENT_SET_NO": 999, "REV_AT_EPOCH": 88891, "BSTAR": 0.0015347361, "MEAN_MOTION_DOT": 3.4e-05, "MEAN_MOTION_DDOT": 0}, "tle": {"line1": "1 37435U 99025EHD 25343.35346685  .00003400  00000+0  15347-2 0  9992", "line2": "2 37435  98.6480  19.7275 0040448  24.2253 336.0816 14.22339891888911"}}, "geometry": {"type": "Point", "coordinates": [-1.1155846897758686, 69.30299373949367]}}, {"type": "Feature", "properties": {"norad_id": 37436, "name": "FENGYUN 1C DEB", "group": "fengyun-1c-debris", "lat": -1.7104217514334077, "lon": -139.45072338966386, "alt_km": 838.4316389558662, "timestamp": "2025-12-12T07:43:20.803347+00:00", "meta": {"OBJECT_NAME": "FENGYUN 1C DEB", "OBJECT_ID": "1999-025EHE", "EPOCH": "2025-12-08T08:57:07.720992", "MEAN_MOTION": 14.06336267, "ECCENTRICITY": 0.00596162, "INCLINATION": 98.9375, "RA_OF_ASC_NODE": 36.9205, "ARG_OF_PERICENTER": 160.2305, "MEAN_ANOMALY": 200.1192, "EPHEMERIS_TYPE": 0, "CLASSIFICATION_TYPE": "U", "NORAD_CAT_ID": 37436, "ELEMENT_SET_NO": 999, "REV_AT_EPOCH": 63937, "BSTAR": 0.0011550832, "MEAN_MOTION_DOT": 1.893e-05, "MEAN_MOTION_DDOT": 0}, "tle": {"line1": "1 37436U 99025EHE 25342.37300603  .00001893  00000+0  11551-2 0  9991", "line2": "2 37436  98.9375  36.9205 0059616 160.2305 200.1192 14.06336267639376"}}, "geometry": {"type": "Point", "coordinates": [-139.45072338966386, -1.7104217514334077]}}]}